<?xml version="1.0" encoding="UTF-8" standalone="no" ?>
<gpx xmlns="http://www.topografix.com/GPX/1/1" xmlns:xsi="http://www.w3.org/2001/XMLSchema-instance" xsi:schemaLocation="http://www.topografix.com/GPX/1/1 http://www.topografix.com/GPX/1/1/gpx.xsd" version="1.1" creator="EditGPX">
  <metadata>
    <name>TK14</name>
  </metadata>
  <trk>
    <desc><![CDATA[DEVELOPED_WITH_SIGNS

DEVELOPED_WITH_SIGNS

DEVELOPED_WITH_SIGNS

UNDER_DEVELOPMENT

UNDER_DEVELOPMENT

DEVELOPED_WITH_SIGNS

DEVELOPED_WITH_SIGNS

DEVELOPED_WITH_SIGNS

DEVELOPED_WITH_SIGNS

DEVELOPED_WITH_SIGNS

DEVELOPED_WITH_SIGNS

DEVELOPED_WITH_SIGNS

DEVELOPED

DEVELOPED

DEVELOPED_WITH_SIGNS

DEVELOPED_WITH_SIGNS

DEVELOPED_WITH_SIGNS

DEVELOPED_WITH_SIGNS

DEVELOPED_WITH_SIGNS

DEVELOPED_WITH_SIGNS

UNDER_DEVELOPMENT

UNDER_DEVELOPMENT

DEVELOPED_WITH_SIGNS

DEVELOPED_WITH_SIGNS

DEVELOPED_WITH_SIGNS

DEVELOPED_WITH_SIGNS

DEVELOPED_WITH_SIGNS

DEVELOPED_WITH_SIGNS

DEVELOPED_WITH_SIGNS

DEVELOPED_WITH_SIGNS

DEVELOPED_WITH_SIGNS

DEVELOPED_WITH_SIGNS

DEVELOPED_WITH_SIGNS

DEVELOPED_WITH_SIGNS

DEVELOPED_WITH_SIGNS

DEVELOPED_WITH_SIGNS

DEVELOPED_WITH_SIGNS

DEVELOPED_WITH_SIGNS

DEVELOPED_WITH_SIGNS

UNDER_DEVELOPMENT

DEVELOPED_WITH_SIGNS

DEVELOPED_WITH_SIGNS

DEVELOPED_WITH_SIGNS

DEVELOPED_WITH_SIGNS

DEVELOPED_WITH_SIGNS

UNDER_DEVELOPMENT

DEVELOPED_WITH_SIGNS

DEVELOPED_WITH_SIGNS

DEVELOPED_WITH_SIGNS

DEVELOPED_WITH_SIGNS

UNDER_DEVELOPMENT

DEVELOPED_WITH_SIGNS

DEVELOPED_WITH_SIGNS

DEVELOPED_WITH_SIGNS

DEVELOPED_WITH_SIGNS

DEVELOPED

DEVELOPED

DEVELOPED_WITH_SIGNS

DEVELOPED_WITH_SIGNS

DEVELOPED_WITH_SIGNS

DEVELOPED_WITH_SIGNS

DEVELOPED_WITH_SIGNS

DEVELOPED_WITH_SIGNS

UNDER_DEVELOPMENT

UNDER_DEVELOPMENT

DEVELOPED_WITH_SIGNS

DEVELOPED_WITH_SIGNS

DEVELOPED_WITH_SIGNS

DEVELOPED_WITH_SIGNS

DEVELOPED_WITH_SIGNS

DEVELOPED_WITH_SIGNS

DEVELOPED_WITH_SIGNS

DEVELOPED_WITH_SIGNS

DEVELOPED_WITH_SIGNS

DEVELOPED_WITH_SIGNS

DEVELOPED_WITH_SIGNS

DEVELOPED_WITH_SIGNS

DEVELOPED_WITH_SIGNS

DEVELOPED_WITH_SIGNS

DEVELOPED_WITH_SIGNS

DEVELOPED_WITH_SIGNS

DEVELOPED_WITH_SIGNS

UNDER_DEVELOPMENT

DEVELOPED_WITH_SIGNS

DEVELOPED_WITH_SIGNS

DEVELOPED_WITH_SIGNS

DEVELOPED_WITH_SIGNS

DEVELOPED_WITH_SIGNS

UNDER_DEVELOPMENT

DEVELOPED_WITH_SIGNS

DEVELOPED_WITH_SIGNS

DEVELOPED_WITH_SIGNS

DEVELOPED_WITH_SIGNS

UNDER_DEVELOPMENT

DEVELOPED_WITH_SIGNS

DEVELOPED_WITH_SIGNS

DEVELOPED_WITH_SIGNS







DEVELOPED_WITH_SIGNS

DEVELOPED

DEVELOPED

DEVELOPED_WITH_SIGNS

DEVELOPED_WITH_SIGNS

DEVELOPED_WITH_SIGNS

DEVELOPED_WITH_SIGNS

DEVELOPED_WITH_SIGNS

DEVELOPED_WITH_SIGNS

UNDER_DEVELOPMENT

UNDER_DEVELOPMENT

DEVELOPED_WITH_SIGNS

DEVELOPED_WITH_SIGNS

DEVELOPED_WITH_SIGNS

DEVELOPED_WITH_SIGNS

DEVELOPED_WITH_SIGNS

DEVELOPED_WITH_SIGNS

DEVELOPED_WITH_SIGNS

DEVELOPED_WITH_SIGNS

DEVELOPED_WITH_SIGNS

DEVELOPED_WITH_SIGNS

DEVELOPED_WITH_SIGNS

DEVELOPED_WITH_SIGNS

DEVELOPED_WITH_SIGNS

DEVELOPED_WITH_SIGNS

DEVELOPED_WITH_SIGNS

DEVELOPED_WITH_SIGNS

DEVELOPED_WITH_SIGNS

UNDER_DEVELOPMENT

DEVELOPED_WITH_SIGNS

DEVELOPED_WITH_SIGNS

DEVELOPED_WITH_SIGNS

DEVELOPED_WITH_SIGNS

DEVELOPED_WITH_SIGNS

UNDER_DEVELOPMENT

DEVELOPED_WITH_SIGNS

DEVELOPED_WITH_SIGNS

DEVELOPED_WITH_SIGNS

DEVELOPED_WITH_SIGNS

UNDER_DEVELOPMENT

DEVELOPED_WITH_SIGNS

DEVELOPED_WITH_SIGNS

DEVELOPED_WITH_SIGNS

DEVELOPED_WITH_SIGNS

DEVELOPED

DEVELOPED

DEVELOPED_WITH_SIGNS

DEVELOPED_WITH_SIGNS

DEVELOPED_WITH_SIGNS

DEVELOPED_WITH_SIGNS

DEVELOPED_WITH_SIGNS

DEVELOPED_WITH_SIGNS

UNDER_DEVELOPMENT

UNDER_DEVELOPMENT

DEVELOPED_WITH_SIGNS

DEVELOPED_WITH_SIGNS

DEVELOPED_WITH_SIGNS

DEVELOPED_WITH_SIGNS

DEVELOPED_WITH_SIGNS

DEVELOPED_WITH_SIGNS

DEVELOPED_WITH_SIGNS

DEVELOPED_WITH_SIGNS

DEVELOPED_WITH_SIGNS

DEVELOPED_WITH_SIGNS

DEVELOPED_WITH_SIGNS

DEVELOPED_WITH_SIGNS

DEVELOPED_WITH_SIGNS

DEVELOPED_WITH_SIGNS

DEVELOPED_WITH_SIGNS

DEVELOPED_WITH_SIGNS

DEVELOPED_WITH_SIGNS

UNDER_DEVELOPMENT

DEVELOPED_WITH_SIGNS

DEVELOPED_WITH_SIGNS

DEVELOPED_WITH_SIGNS

DEVELOPED_WITH_SIGNS

DEVELOPED_WITH_SIGNS

UNDER_DEVELOPMENT

DEVELOPED_WITH_SIGNS

DEVELOPED_WITH_SIGNS

DEVELOPED_WITH_SIGNS

DEVELOPED_WITH_SIGNS

UNDER_DEVELOPMENT

DEVELOPED_WITH_SIGNS

DEVELOPED_WITH_SIGNS

DEVELOPED_WITH_SIGNS



DEVELOPED_WITH_SIGNS

DEVELOPED_WITH_SIGNS

DEVELOPED_WITH_SIGNS

UNDER_DEVELOPMENT

UNDER_DEVELOPMENT

DEVELOPED_WITH_SIGNS

DEVELOPED_WITH_SIGNS

DEVELOPED_WITH_SIGNS

DEVELOPED_WITH_SIGNS

DEVELOPED_WITH_SIGNS

DEVELOPED_WITH_SIGNS

DEVELOPED_WITH_SIGNS

DEVELOPED_WITH_SIGNS

DEVELOPED_WITH_SIGNS

UNDER_DEVELOPMENT

UNDER_DEVELOPMENT

DEVELOPED_WITH_SIGNS

DEVELOPED_WITH_SIGNS

DEVELOPED_WITH_SIGNS

DEVELOPED_WITH_SIGNS

DEVELOPED_WITH_SIGNS

DEVELOPED_WITH_SIGNS

DEVELOPED_WITH_SIGNS

DEVELOPED

DEVELOPED

DEVELOPED_WITH_SIGNS

DEVELOPED_WITH_SIGNS

DEVELOPED_WITH_SIGNS

DEVELOPED_WITH_SIGNS

DEVELOPED_WITH_SIGNS

DEVELOPED_WITH_SIGNS

UNDER_DEVELOPMENT

UNDER_DEVELOPMENT

DEVELOPED_WITH_SIGNS

DEVELOPED_WITH_SIGNS

DEVELOPED_WITH_SIGNS

DEVELOPED_WITH_SIGNS

DEVELOPED_WITH_SIGNS

DEVELOPED_WITH_SIGNS

DEVELOPED_WITH_SIGNS

DEVELOPED_WITH_SIGNS

DEVELOPED_WITH_SIGNS

DEVELOPED_WITH_SIGNS

DEVELOPED_WITH_SIGNS

DEVELOPED_WITH_SIGNS

DEVELOPED_WITH_SIGNS

DEVELOPED_WITH_SIGNS

DEVELOPED_WITH_SIGNS

DEVELOPED_WITH_SIGNS

DEVELOPED_WITH_SIGNS

UNDER_DEVELOPMENT

DEVELOPED_WITH_SIGNS

DEVELOPED_WITH_SIGNS

DEVELOPED_WITH_SIGNS

DEVELOPED_WITH_SIGNS

DEVELOPED_WITH_SIGNS

UNDER_DEVELOPMENT

DEVELOPED_WITH_SIGNS

DEVELOPED_WITH_SIGNS

DEVELOPED_WITH_SIGNS

DEVELOPED_WITH_SIGNS

UNDER_DEVELOPMENT

DEVELOPED_WITH_SIGNS

DEVELOPED_WITH_SIGNS

DEVELOPED_WITH_SIGNS

DEVELOPED_WITH_SIGNS

DEVELOPED

DEVELOPED

DEVELOPED_WITH_SIGNS

DEVELOPED_WITH_SIGNS

DEVELOPED_WITH_SIGNS

DEVELOPED_WITH_SIGNS

DEVELOPED_WITH_SIGNS

DEVELOPED_WITH_SIGNS

UNDER_DEVELOPMENT

UNDER_DEVELOPMENT

DEVELOPED_WITH_SIGNS

DEVELOPED_WITH_SIGNS

DEVELOPED_WITH_SIGNS

DEVELOPED_WITH_SIGNS

DEVELOPED_WITH_SIGNS

DEVELOPED_WITH_SIGNS

DEVELOPED_WITH_SIGNS

DEVELOPED_WITH_SIGNS

DEVELOPED_WITH_SIGNS

DEVELOPED_WITH_SIGNS

DEVELOPED_WITH_SIGNS

DEVELOPED_WITH_SIGNS

DEVELOPED_WITH_SIGNS

DEVELOPED_WITH_SIGNS

DEVELOPED_WITH_SIGNS

DEVELOPED_WITH_SIGNS

DEVELOPED_WITH_SIGNS

UNDER_DEVELOPMENT

DEVELOPED_WITH_SIGNS

DEVELOPED_WITH_SIGNS

DEVELOPED_WITH_SIGNS

DEVELOPED_WITH_SIGNS

DEVELOPED_WITH_SIGNS

UNDER_DEVELOPMENT

DEVELOPED_WITH_SIGNS

DEVELOPED_WITH_SIGNS

DEVELOPED_WITH_SIGNS

DEVELOPED_WITH_SIGNS

UNDER_DEVELOPMENT

DEVELOPED_WITH_SIGNS

DEVELOPED_WITH_SIGNS

DEVELOPED_WITH_SIGNS







DEVELOPED_WITH_SIGNS

DEVELOPED

DEVELOPED

DEVELOPED_WITH_SIGNS

DEVELOPED_WITH_SIGNS

DEVELOPED_WITH_SIGNS

DEVELOPED_WITH_SIGNS

DEVELOPED_WITH_SIGNS

DEVELOPED_WITH_SIGNS

UNDER_DEVELOPMENT

UNDER_DEVELOPMENT

DEVELOPED_WITH_SIGNS

DEVELOPED_WITH_SIGNS

DEVELOPED_WITH_SIGNS

DEVELOPED_WITH_SIGNS

DEVELOPED_WITH_SIGNS

DEVELOPED_WITH_SIGNS

DEVELOPED_WITH_SIGNS

DEVELOPED_WITH_SIGNS

DEVELOPED_WITH_SIGNS

DEVELOPED_WITH_SIGNS

DEVELOPED_WITH_SIGNS

DEVELOPED_WITH_SIGNS

DEVELOPED_WITH_SIGNS

DEVELOPED_WITH_SIGNS

DEVELOPED_WITH_SIGNS

DEVELOPED_WITH_SIGNS

DEVELOPED_WITH_SIGNS

UNDER_DEVELOPMENT

DEVELOPED_WITH_SIGNS

DEVELOPED_WITH_SIGNS

DEVELOPED_WITH_SIGNS

DEVELOPED_WITH_SIGNS

DEVELOPED_WITH_SIGNS

UNDER_DEVELOPMENT

DEVELOPED_WITH_SIGNS

DEVELOPED_WITH_SIGNS

DEVELOPED_WITH_SIGNS

DEVELOPED_WITH_SIGNS

UNDER_DEVELOPMENT

DEVELOPED_WITH_SIGNS

DEVELOPED_WITH_SIGNS

DEVELOPED_WITH_SIGNS

DEVELOPED_WITH_SIGNS

DEVELOPED

DEVELOPED

DEVELOPED_WITH_SIGNS

DEVELOPED_WITH_SIGNS

DEVELOPED_WITH_SIGNS

DEVELOPED_WITH_SIGNS

DEVELOPED_WITH_SIGNS

DEVELOPED_WITH_SIGNS

UNDER_DEVELOPMENT

UNDER_DEVELOPMENT

DEVELOPED_WITH_SIGNS

DEVELOPED_WITH_SIGNS

DEVELOPED_WITH_SIGNS

DEVELOPED_WITH_SIGNS

DEVELOPED_WITH_SIGNS

DEVELOPED_WITH_SIGNS

DEVELOPED_WITH_SIGNS

DEVELOPED_WITH_SIGNS

DEVELOPED_WITH_SIGNS

DEVELOPED_WITH_SIGNS

DEVELOPED_WITH_SIGNS

DEVELOPED_WITH_SIGNS

DEVELOPED_WITH_SIGNS

DEVELOPED_WITH_SIGNS

DEVELOPED_WITH_SIGNS

DEVELOPED_WITH_SIGNS

DEVELOPED_WITH_SIGNS

UNDER_DEVELOPMENT

DEVELOPED_WITH_SIGNS

DEVELOPED_WITH_SIGNS

DEVELOPED_WITH_SIGNS

DEVELOPED_WITH_SIGNS

DEVELOPED_WITH_SIGNS

UNDER_DEVELOPMENT

DEVELOPED_WITH_SIGNS

DEVELOPED_WITH_SIGNS

DEVELOPED_WITH_SIGNS

DEVELOPED_WITH_SIGNS

UNDER_DEVELOPMENT

DEVELOPED_WITH_SIGNS

DEVELOPED_WITH_SIGNS

DEVELOPED_WITH_SIGNS]]></desc>
    <trkseg>
      <trkpt lat="46.148951" lon="6.074782">
        <ele>425</ele>
      </trkpt>
      <trkpt lat="46.149129" lon="6.074676">
        <ele>424.7</ele>
      </trkpt>
      <trkpt lat="46.149148" lon="6.074683">
        <ele>424.7</ele>
      </trkpt>
      <trkpt lat="46.149241" lon="6.074722">
        <ele>424.2</ele>
      </trkpt>
      <trkpt lat="46.149324" lon="6.074776">
        <ele>423.4</ele>
      </trkpt>
      <trkpt lat="46.149523" lon="6.074998">
        <ele>423.4</ele>
      </trkpt>
      <trkpt lat="46.149609" lon="6.075095">
        <ele>423.1</ele>
      </trkpt>
      <trkpt lat="46.149740" lon="6.075206">
        <ele>423.4</ele>
      </trkpt>
      <trkpt lat="46.149868" lon="6.075323">
        <ele>423</ele>
      </trkpt>
      <trkpt lat="46.149928" lon="6.075368">
        <ele>422.7</ele>
      </trkpt>
      <trkpt lat="46.150009" lon="6.075442">
        <ele>422.6</ele>
      </trkpt>
      <trkpt lat="46.150165" lon="6.075560">
        <ele>423</ele>
      </trkpt>
      <trkpt lat="46.150234" lon="6.075596">
        <ele>422.9</ele>
      </trkpt>
      <trkpt lat="46.150309" lon="6.075626">
        <ele>422.7</ele>
      </trkpt>
      <trkpt lat="46.150377" lon="6.075644">
        <ele>422.6</ele>
      </trkpt>
      <trkpt lat="46.150544" lon="6.075686">
        <ele>422.5</ele>
      </trkpt>
      <trkpt lat="46.150641" lon="6.075714">
        <ele>422.4</ele>
      </trkpt>
      <trkpt lat="46.150754" lon="6.075753">
        <ele>422.2</ele>
      </trkpt>
      <trkpt lat="46.150852" lon="6.075796">
        <ele>422.1</ele>
      </trkpt>
      <trkpt lat="46.150979" lon="6.075865">
        <ele>422.4</ele>
      </trkpt>
      <trkpt lat="46.151062" lon="6.075918">
        <ele>422.3</ele>
      </trkpt>
      <trkpt lat="46.151171" lon="6.075979">
        <ele>422</ele>
      </trkpt>
      <trkpt lat="46.151244" lon="6.076019">
        <ele>422</ele>
      </trkpt>
      <trkpt lat="46.151443" lon="6.076135">
        <ele>422.6</ele>
      </trkpt>
      <trkpt lat="46.151686" lon="6.076266">
        <ele>421.5</ele>
      </trkpt>
      <trkpt lat="46.152187" lon="6.076567">
        <ele>421</ele>
      </trkpt>
      <trkpt lat="46.152315" lon="6.076617">
        <ele>421</ele>
      </trkpt>
      <trkpt lat="46.152384" lon="6.076632">
        <ele>421</ele>
      </trkpt>
      <trkpt lat="46.152501" lon="6.076638">
        <ele>421</ele>
      </trkpt>
      <trkpt lat="46.152606" lon="6.076628">
        <ele>420.7</ele>
      </trkpt>
      <trkpt lat="46.152693" lon="6.076611">
        <ele>420.4</ele>
      </trkpt>
      <trkpt lat="46.152938" lon="6.076544">
        <ele>420.2</ele>
      </trkpt>
      <trkpt lat="46.153098" lon="6.076582">
        <ele>420.1</ele>
      </trkpt>
      <trkpt lat="46.153352" lon="6.076609">
        <ele>420.5</ele>
      </trkpt>
      <trkpt lat="46.153401" lon="6.076619">
        <ele>420.3</ele>
      </trkpt>
      <trkpt lat="46.154033" lon="6.076740">
        <ele>418.4</ele>
      </trkpt>
      <trkpt lat="46.154715" lon="6.076807">
        <ele>417.5</ele>
      </trkpt>
      <trkpt lat="46.154871" lon="6.076818">
        <ele>417</ele>
      </trkpt>
      <trkpt lat="46.155317" lon="6.076847">
        <ele>416.6</ele>
      </trkpt>
      <trkpt lat="46.155450" lon="6.076848">
        <ele>416.7</ele>
      </trkpt>
      <trkpt lat="46.155580" lon="6.076864">
        <ele>416.7</ele>
      </trkpt>
      <trkpt lat="46.155878" lon="6.076900">
        <ele>416.7</ele>
      </trkpt>
      <trkpt lat="46.156645" lon="6.076966">
        <ele>415</ele>
      </trkpt>
      <trkpt lat="46.156730" lon="6.076969">
        <ele>415</ele>
      </trkpt>
      <trkpt lat="46.157025" lon="6.077003">
        <ele>414.6</ele>
      </trkpt>
      <trkpt lat="46.157055" lon="6.077069">
        <ele>414.3</ele>
      </trkpt>
      <trkpt lat="46.157115" lon="6.077087">
        <ele>414.2</ele>
      </trkpt>
      <trkpt lat="46.157143" lon="6.077104">
        <ele>414.1</ele>
      </trkpt>
      <trkpt lat="46.157184" lon="6.077139">
        <ele>414</ele>
      </trkpt>
      <trkpt lat="46.157201" lon="6.077154">
        <ele>414</ele>
      </trkpt>
      <trkpt lat="46.157259" lon="6.077196">
        <ele>413.9</ele>
      </trkpt>
      <trkpt lat="46.157281" lon="6.077174">
        <ele>413.8</ele>
      </trkpt>
      <trkpt lat="46.157534" lon="6.077197">
        <ele>412.9</ele>
      </trkpt>
      <trkpt lat="46.157810" lon="6.077217">
        <ele>413</ele>
      </trkpt>
      <trkpt lat="46.158197" lon="6.077251">
        <ele>412.5</ele>
      </trkpt>
      <trkpt lat="46.158206" lon="6.077276">
        <ele>412.6</ele>
      </trkpt>
      <trkpt lat="46.158296" lon="6.077517">
        <ele>413</ele>
      </trkpt>
      <trkpt lat="46.158328" lon="6.077599">
        <ele>413</ele>
      </trkpt>
      <trkpt lat="46.158661" lon="6.077337">
        <ele>412.1</ele>
      </trkpt>
      <trkpt lat="46.158672" lon="6.077302">
        <ele>411.9</ele>
      </trkpt>
      <trkpt lat="46.158674" lon="6.077265">
        <ele>411.7</ele>
      </trkpt>
      <trkpt lat="46.158686" lon="6.076833">
        <ele>411.8</ele>
      </trkpt>
      <trkpt lat="46.158688" lon="6.076773">
        <ele>412.2</ele>
      </trkpt>
      <trkpt lat="46.158973" lon="6.076798">
        <ele>412.2</ele>
      </trkpt>
      <trkpt lat="46.159079" lon="6.076798">
        <ele>412.4</ele>
      </trkpt>
      <trkpt lat="46.159190" lon="6.076818">
        <ele>412.5</ele>
      </trkpt>
      <trkpt lat="46.159257" lon="6.076814">
        <ele>412.5</ele>
      </trkpt>
      <trkpt lat="46.159279" lon="6.076813">
        <ele>412.5</ele>
      </trkpt>
      <trkpt lat="46.159499" lon="6.076790">
        <ele>412.4</ele>
      </trkpt>
      <trkpt lat="46.159875" lon="6.076734">
        <ele>412</ele>
      </trkpt>
      <trkpt lat="46.159911" lon="6.076730">
        <ele>412</ele>
      </trkpt>
      <trkpt lat="46.160339" lon="6.076684">
        <ele>411</ele>
      </trkpt>
      <trkpt lat="46.160838" lon="6.076618">
        <ele>411</ele>
      </trkpt>
      <trkpt lat="46.161054" lon="6.076581">
        <ele>411</ele>
      </trkpt>
      <trkpt lat="46.161221" lon="6.076552">
        <ele>410.8</ele>
      </trkpt>
      <trkpt lat="46.161320" lon="6.076529">
        <ele>410.6</ele>
      </trkpt>
      <trkpt lat="46.161385" lon="6.076505">
        <ele>410.6</ele>
      </trkpt>
      <trkpt lat="46.161515" lon="6.076458">
        <ele>410.4</ele>
      </trkpt>
      <trkpt lat="46.161837" lon="6.076330">
        <ele>410.2</ele>
      </trkpt>
      <trkpt lat="46.161854" lon="6.076410">
        <ele>410</ele>
      </trkpt>
      <trkpt lat="46.161858" lon="6.076430">
        <ele>410</ele>
      </trkpt>
      <trkpt lat="46.161992" lon="6.076379">
        <ele>409.9</ele>
      </trkpt>
      <trkpt lat="46.162131" lon="6.076325">
        <ele>409.7</ele>
      </trkpt>
      <trkpt lat="46.162343" lon="6.076242">
        <ele>409.6</ele>
      </trkpt>
      <trkpt lat="46.162530" lon="6.076209">
        <ele>409.3</ele>
      </trkpt>
      <trkpt lat="46.162652" lon="6.076156">
        <ele>409.7</ele>
      </trkpt>
      <trkpt lat="46.162751" lon="6.076103">
        <ele>410</ele>
      </trkpt>
      <trkpt lat="46.162775" lon="6.076090">
        <ele>410</ele>
      </trkpt>
      <trkpt lat="46.163261" lon="6.075969">
        <ele>408.4</ele>
      </trkpt>
      <trkpt lat="46.163488" lon="6.075877">
        <ele>408.1</ele>
      </trkpt>
      <trkpt lat="46.163546" lon="6.075844">
        <ele>408</ele>
      </trkpt>
      <trkpt lat="46.163857" lon="6.075924">
        <ele>408.6</ele>
      </trkpt>
      <trkpt lat="46.163917" lon="6.075935">
        <ele>408.6</ele>
      </trkpt>
      <trkpt lat="46.163947" lon="6.075949">
        <ele>408.6</ele>
      </trkpt>
      <trkpt lat="46.164010" lon="6.075993">
        <ele>408.4</ele>
      </trkpt>
      <trkpt lat="46.164065" lon="6.076026">
        <ele>408.3</ele>
      </trkpt>
      <trkpt lat="46.164118" lon="6.076072">
        <ele>408.1</ele>
      </trkpt>
      <trkpt lat="46.164156" lon="6.076102">
        <ele>408</ele>
      </trkpt>
      <trkpt lat="46.164184" lon="6.076118">
        <ele>408.1</ele>
      </trkpt>
      <trkpt lat="46.164259" lon="6.076114">
        <ele>408.3</ele>
      </trkpt>
      <trkpt lat="46.164360" lon="6.076230">
        <ele>408.1</ele>
      </trkpt>
      <trkpt lat="46.164471" lon="6.076342">
        <ele>407.5</ele>
      </trkpt>
      <trkpt lat="46.164551" lon="6.076427">
        <ele>407.8</ele>
      </trkpt>
      <trkpt lat="46.164621" lon="6.076515">
        <ele>408.1</ele>
      </trkpt>
      <trkpt lat="46.164628" lon="6.076523">
        <ele>408.2</ele>
      </trkpt>
      <trkpt lat="46.164690" lon="6.076605">
        <ele>408.2</ele>
      </trkpt>
      <trkpt lat="46.164740" lon="6.076681">
        <ele>408.1</ele>
      </trkpt>
      <trkpt lat="46.164796" lon="6.076778">
        <ele>408.3</ele>
      </trkpt>
      <trkpt lat="46.164857" lon="6.076889">
        <ele>408.3</ele>
      </trkpt>
      <trkpt lat="46.164912" lon="6.076997">
        <ele>408.2</ele>
      </trkpt>
      <trkpt lat="46.164955" lon="6.077087">
        <ele>408.2</ele>
      </trkpt>
      <trkpt lat="46.165030" lon="6.077251">
        <ele>408.1</ele>
      </trkpt>
      <trkpt lat="46.165179" lon="6.077609">
        <ele>408.5</ele>
      </trkpt>
      <trkpt lat="46.165561" lon="6.078519">
        <ele>406.7</ele>
      </trkpt>
      <trkpt lat="46.165811" lon="6.079097">
        <ele>406.3</ele>
      </trkpt>
      <trkpt lat="46.165823" lon="6.079126">
        <ele>406.2</ele>
      </trkpt>
      <trkpt lat="46.165871" lon="6.079238">
        <ele>406</ele>
      </trkpt>
      <trkpt lat="46.166038" lon="6.079632">
        <ele>406.7</ele>
      </trkpt>
      <trkpt lat="46.166364" lon="6.080410">
        <ele>405.5</ele>
      </trkpt>
      <trkpt lat="46.166853" lon="6.081558">
        <ele>405</ele>
      </trkpt>
      <trkpt lat="46.166863" lon="6.081580">
        <ele>405</ele>
      </trkpt>
      <trkpt lat="46.166914" lon="6.081695">
        <ele>404.8</ele>
      </trkpt>
      <trkpt lat="46.166939" lon="6.081752">
        <ele>404.4</ele>
      </trkpt>
      <trkpt lat="46.167098" lon="6.081634">
        <ele>405</ele>
      </trkpt>
      <trkpt lat="46.167204" lon="6.081537">
        <ele>405</ele>
      </trkpt>
      <trkpt lat="46.167429" lon="6.081253">
        <ele>407</ele>
      </trkpt>
      <trkpt lat="46.167511" lon="6.081145">
        <ele>408</ele>
      </trkpt>
      <trkpt lat="46.167559" lon="6.081094">
        <ele>408.6</ele>
      </trkpt>
      <trkpt lat="46.167607" lon="6.081071">
        <ele>409.1</ele>
      </trkpt>
      <trkpt lat="46.167648" lon="6.081071">
        <ele>409.4</ele>
      </trkpt>
      <trkpt lat="46.167882" lon="6.081220">
        <ele>410.4</ele>
      </trkpt>
      <trkpt lat="46.167941" lon="6.081225">
        <ele>410.8</ele>
      </trkpt>
      <trkpt lat="46.167973" lon="6.081207">
        <ele>411.1</ele>
      </trkpt>
      <trkpt lat="46.168068" lon="6.081072">
        <ele>412.5</ele>
      </trkpt>
      <trkpt lat="46.168226" lon="6.080843">
        <ele>414.9</ele>
      </trkpt>
      <trkpt lat="46.168273" lon="6.080774">
        <ele>415.5</ele>
      </trkpt>
      <trkpt lat="46.168360" lon="6.080967">
        <ele>414.8</ele>
      </trkpt>
      <trkpt lat="46.168419" lon="6.081079">
        <ele>414.8</ele>
      </trkpt>
      <trkpt lat="46.168503" lon="6.081196">
        <ele>414.4</ele>
      </trkpt>
      <trkpt lat="46.168545" lon="6.081249">
        <ele>414.2</ele>
      </trkpt>
      <trkpt lat="46.168615" lon="6.081350">
        <ele>413.4</ele>
      </trkpt>
      <trkpt lat="46.168759" lon="6.081547">
        <ele>413.2</ele>
      </trkpt>
      <trkpt lat="46.168822" lon="6.081621">
        <ele>413</ele>
      </trkpt>
      <trkpt lat="46.168887" lon="6.081678">
        <ele>412.9</ele>
      </trkpt>
      <trkpt lat="46.168946" lon="6.081706">
        <ele>413.1</ele>
      </trkpt>
      <trkpt lat="46.169036" lon="6.081731">
        <ele>413.6</ele>
      </trkpt>
      <trkpt lat="46.169110" lon="6.081747">
        <ele>414</ele>
      </trkpt>
      <trkpt lat="46.169338" lon="6.081783">
        <ele>415.8</ele>
      </trkpt>
      <trkpt lat="46.169400" lon="6.081794">
        <ele>416.2</ele>
      </trkpt>
      <trkpt lat="46.169653" lon="6.081846">
        <ele>418</ele>
      </trkpt>
      <trkpt lat="46.169793" lon="6.081875">
        <ele>419.3</ele>
      </trkpt>
      <trkpt lat="46.169881" lon="6.081895">
        <ele>420.2</ele>
      </trkpt>
      <trkpt lat="46.170057" lon="6.081924">
        <ele>421.6</ele>
      </trkpt>
      <trkpt lat="46.170090" lon="6.081926">
        <ele>421.8</ele>
      </trkpt>
      <trkpt lat="46.170228" lon="6.081944">
        <ele>422.6</ele>
      </trkpt>
      <trkpt lat="46.170343" lon="6.081975">
        <ele>423.2</ele>
      </trkpt>
      <trkpt lat="46.170397" lon="6.081990">
        <ele>423.5</ele>
      </trkpt>
      <trkpt lat="46.170464" lon="6.082017">
        <ele>423.8</ele>
      </trkpt>
      <trkpt lat="46.170512" lon="6.082046">
        <ele>424</ele>
      </trkpt>
      <trkpt lat="46.170594" lon="6.082104">
        <ele>424.3</ele>
      </trkpt>
      <trkpt lat="46.170667" lon="6.082168">
        <ele>424.6</ele>
      </trkpt>
      <trkpt lat="46.170726" lon="6.082229">
        <ele>424.8</ele>
      </trkpt>
      <trkpt lat="46.170821" lon="6.082321">
        <ele>424.8</ele>
      </trkpt>
      <trkpt lat="46.170904" lon="6.082394">
        <ele>424.9</ele>
      </trkpt>
      <trkpt lat="46.170970" lon="6.082448">
        <ele>425</ele>
      </trkpt>
      <trkpt lat="46.171044" lon="6.082494">
        <ele>425.3</ele>
      </trkpt>
      <trkpt lat="46.171117" lon="6.082526">
        <ele>425.8</ele>
      </trkpt>
      <trkpt lat="46.171179" lon="6.082549">
        <ele>426.2</ele>
      </trkpt>
      <trkpt lat="46.171260" lon="6.082567">
        <ele>426.9</ele>
      </trkpt>
      <trkpt lat="46.171339" lon="6.082578">
        <ele>427.6</ele>
      </trkpt>
      <trkpt lat="46.171420" lon="6.082585">
        <ele>428.4</ele>
      </trkpt>
      <trkpt lat="46.171515" lon="6.082579">
        <ele>429.5</ele>
      </trkpt>
      <trkpt lat="46.171607" lon="6.082567">
        <ele>430.6</ele>
      </trkpt>
      <trkpt lat="46.171761" lon="6.082543">
        <ele>432.3</ele>
      </trkpt>
      <trkpt lat="46.171963" lon="6.082521">
        <ele>434</ele>
      </trkpt>
      <trkpt lat="46.171972" lon="6.082519">
        <ele>434.1</ele>
      </trkpt>
      <trkpt lat="46.172024" lon="6.082508">
        <ele>434.5</ele>
      </trkpt>
      <trkpt lat="46.172154" lon="6.082634">
        <ele>434.9</ele>
      </trkpt>
      <trkpt lat="46.172194" lon="6.082672">
        <ele>435.1</ele>
      </trkpt>
      <trkpt lat="46.172266" lon="6.082743">
        <ele>435.8</ele>
      </trkpt>
      <trkpt lat="46.172283" lon="6.082765">
        <ele>435.9</ele>
      </trkpt>
      <trkpt lat="46.172304" lon="6.082794">
        <ele>436</ele>
      </trkpt>
      <trkpt lat="46.172330" lon="6.082833">
        <ele>435.9</ele>
      </trkpt>
      <trkpt lat="46.172357" lon="6.082877">
        <ele>435.7</ele>
      </trkpt>
      <trkpt lat="46.172597" lon="6.083340">
        <ele>434.3</ele>
      </trkpt>
      <trkpt lat="46.172793" lon="6.083715">
        <ele>433.2</ele>
      </trkpt>
      <trkpt lat="46.172836" lon="6.083795">
        <ele>433.3</ele>
      </trkpt>
      <trkpt lat="46.172883" lon="6.083876">
        <ele>433.8</ele>
      </trkpt>
      <trkpt lat="46.172979" lon="6.084027">
        <ele>433.4</ele>
      </trkpt>
      <trkpt lat="46.173089" lon="6.084189">
        <ele>431.6</ele>
      </trkpt>
      <trkpt lat="46.173178" lon="6.084313">
        <ele>432.4</ele>
      </trkpt>
      <trkpt lat="46.173228" lon="6.084378">
        <ele>432.5</ele>
      </trkpt>
      <trkpt lat="46.173279" lon="6.084438">
        <ele>432.5</ele>
      </trkpt>
      <trkpt lat="46.173395" lon="6.084561">
        <ele>432.5</ele>
      </trkpt>
      <trkpt lat="46.173517" lon="6.084687">
        <ele>432.4</ele>
      </trkpt>
      <trkpt lat="46.173531" lon="6.084701">
        <ele>432.4</ele>
      </trkpt>
      <trkpt lat="46.173609" lon="6.084788">
        <ele>432.7</ele>
      </trkpt>
      <trkpt lat="46.173645" lon="6.084828">
        <ele>433.2</ele>
      </trkpt>
      <trkpt lat="46.173674" lon="6.084866">
        <ele>433.4</ele>
      </trkpt>
      <trkpt lat="46.173712" lon="6.084916">
        <ele>433.5</ele>
      </trkpt>
      <trkpt lat="46.173682" lon="6.084959">
        <ele>432.8</ele>
      </trkpt>
      <trkpt lat="46.173633" lon="6.085030">
        <ele>431.9</ele>
      </trkpt>
      <trkpt lat="46.173526" lon="6.085188">
        <ele>430</ele>
      </trkpt>
      <trkpt lat="46.173380" lon="6.085393">
        <ele>427.2</ele>
      </trkpt>
      <trkpt lat="46.173350" lon="6.085435">
        <ele>426.5</ele>
      </trkpt>
      <trkpt lat="46.173310" lon="6.085420">
        <ele>429.5</ele>
      </trkpt>
      <trkpt lat="46.174080" lon="6.087090">
        <ele>425.3</ele>
      </trkpt>
      <trkpt lat="46.176680" lon="6.091510">
        <ele>416.7</ele>
      </trkpt>
      <trkpt lat="46.177120" lon="6.091110">
        <ele>424.5</ele>
      </trkpt>
      <trkpt lat="46.177270" lon="6.092370">
        <ele>421</ele>
      </trkpt>
      <trkpt lat="46.177820" lon="6.094730">
        <ele>419.3</ele>
      </trkpt>
      <trkpt lat="46.178770" lon="6.097540">
        <ele>421.3</ele>
      </trkpt>
      <trkpt lat="46.179460" lon="6.098940">
        <ele>421.2</ele>
      </trkpt>
      <trkpt lat="46.179710" lon="6.098870">
        <ele>423.3</ele>
      </trkpt>
      <trkpt lat="46.180570" lon="6.100550">
        <ele>427</ele>
      </trkpt>
      <trkpt lat="46.181050" lon="6.100310">
        <ele>429.6</ele>
      </trkpt>
      <trkpt lat="46.181480" lon="6.101300">
        <ele>429.7</ele>
      </trkpt>
      <trkpt lat="46.182440" lon="6.103120">
        <ele>425.6</ele>
      </trkpt>
      <trkpt lat="46.182670" lon="6.103360">
        <ele>424.8</ele>
      </trkpt>
      <trkpt lat="46.183690" lon="6.104780">
        <ele>425.6</ele>
      </trkpt>
      <trkpt lat="46.184830" lon="6.107930">
        <ele>420.8</ele>
      </trkpt>
      <trkpt lat="46.184860" lon="6.109320">
        <ele>418.1</ele>
      </trkpt>
      <trkpt lat="46.185280" lon="6.110200">
        <ele>418.3</ele>
      </trkpt>
      <trkpt lat="46.185150" lon="6.111190">
        <ele>420.2</ele>
      </trkpt>
      <trkpt lat="46.184810" lon="6.111710">
        <ele>418.8</ele>
      </trkpt>
      <trkpt lat="46.185960" lon="6.115500">
        <ele>422.1</ele>
      </trkpt>
      <trkpt lat="46.186600" lon="6.116960">
        <ele>418.9</ele>
      </trkpt>
      <trkpt lat="46.187200" lon="6.117970">
        <ele>419.9</ele>
      </trkpt>
      <trkpt lat="46.187820" lon="6.117370">
        <ele>421.2</ele>
      </trkpt>
      <trkpt lat="46.188800" lon="6.118810">
        <ele>423</ele>
      </trkpt>
      <trkpt lat="46.189560" lon="6.120050">
        <ele>422.1</ele>
      </trkpt>
      <trkpt lat="46.190360" lon="6.117860">
        <ele>426.4</ele>
      </trkpt>
      <trkpt lat="46.192190" lon="6.116680">
        <ele>424.9</ele>
      </trkpt>
      <trkpt lat="46.194020" lon="6.120590">
        <ele>423.9</ele>
      </trkpt>
      <trkpt lat="46.196020" lon="6.121510">
        <ele>417.7</ele>
      </trkpt>
      <trkpt lat="46.196080" lon="6.122690">
        <ele>415.9</ele>
      </trkpt>
      <trkpt lat="46.195900" lon="6.123530">
        <ele>414.1</ele>
      </trkpt>
      <trkpt lat="46.196040" lon="6.124260">
        <ele>411.8</ele>
      </trkpt>
      <trkpt lat="46.196380" lon="6.124750">
        <ele>411.9</ele>
      </trkpt>
      <trkpt lat="46.196450" lon="6.125160">
        <ele>410.4</ele>
      </trkpt>
      <trkpt lat="46.196670" lon="6.125630">
        <ele>408.1</ele>
      </trkpt>
      <trkpt lat="46.197020" lon="6.126860">
        <ele>396.4</ele>
      </trkpt>
      <trkpt lat="46.197180" lon="6.127160">
        <ele>395.8</ele>
      </trkpt>
      <trkpt lat="46.197650" lon="6.127260">
        <ele>401</ele>
      </trkpt>
      <trkpt lat="46.198780" lon="6.127730">
        <ele>386.5</ele>
      </trkpt>
      <trkpt lat="46.199110" lon="6.127930">
        <ele>375.6</ele>
      </trkpt>
      <trkpt lat="46.199630" lon="6.126810">
        <ele>380.5</ele>
      </trkpt>
      <trkpt lat="46.199820" lon="6.125630">
        <ele>384.1</ele>
      </trkpt>
      <trkpt lat="46.199970" lon="6.125180">
        <ele>380.2</ele>
      </trkpt>
      <trkpt lat="46.200890" lon="6.125830">
        <ele>371.4</ele>
      </trkpt>
      <trkpt lat="46.202290" lon="6.125930">
        <ele>371.4</ele>
      </trkpt>
      <trkpt lat="46.202560" lon="6.127370">
        <ele>374.7</ele>
      </trkpt>
      <trkpt lat="46.202690" lon="6.128740">
        <ele>371.5</ele>
      </trkpt>
      <trkpt lat="46.202690" lon="6.131770">
        <ele>371.2</ele>
      </trkpt>
      <trkpt lat="46.203090" lon="6.133440">
        <ele>371.1</ele>
      </trkpt>
      <trkpt lat="46.203580" lon="6.134620">
        <ele>371.8</ele>
      </trkpt>
      <trkpt lat="46.204030" lon="6.135520">
        <ele>379.2</ele>
      </trkpt>
      <trkpt lat="46.204230" lon="6.135420">
        <ele>381</ele>
      </trkpt>
      <trkpt lat="46.204680" lon="6.134860">
        <ele>392.4</ele>
      </trkpt>
      <trkpt lat="46.205360" lon="6.135950">
        <ele>389.9</ele>
      </trkpt>
      <trkpt lat="46.205470" lon="6.136980">
        <ele>381.3</ele>
      </trkpt>
      <trkpt lat="46.205420" lon="6.139600">
        <ele>374.2</ele>
      </trkpt>
      <trkpt lat="46.205480" lon="6.141080">
        <ele>380.8</ele>
      </trkpt>
      <trkpt lat="46.205700" lon="6.142880">
        <ele>384</ele>
      </trkpt>
      <trkpt lat="46.207030" lon="6.142090">
        <ele>390.3</ele>
      </trkpt>
      <trkpt lat="46.208300" lon="6.142480">
        <ele>389.3</ele>
      </trkpt>
      <trkpt lat="46.208510" lon="6.141080">
        <ele>390.7</ele>
      </trkpt>
      <trkpt lat="46.209449" lon="6.142215">
        <ele>391</ele>
      </trkpt>
      <trkpt lat="46.209445" lon="6.142184">
        <ele>391</ele>
        <extensions>
          <visugpx:TrkExtension xmlns:visugpx="https://www.visugpx.com/editgpx/">
            <visugpx:node>1</visugpx:node>
          </visugpx:TrkExtension>
        </extensions>
      </trkpt>
      <trkpt lat="46.210829" lon="6.143791">
        <ele>390.8</ele>
      </trkpt>
      <trkpt lat="46.210683" lon="6.143931">
        <ele>390.8</ele>
      </trkpt>
      <trkpt lat="46.210883" lon="6.144119">
        <ele>390.6</ele>
      </trkpt>
      <trkpt lat="46.212894" lon="6.145264">
        <ele>388.8</ele>
      </trkpt>
      <trkpt lat="46.214282" lon="6.146189">
        <ele>388.8</ele>
      </trkpt>
      <trkpt lat="46.216180" lon="6.147567">
        <ele>391.4</ele>
      </trkpt>
      <trkpt lat="46.218072" lon="6.148359">
        <ele>387.9</ele>
      </trkpt>
      <trkpt lat="46.220208" lon="6.149734">
        <ele>389.7</ele>
      </trkpt>
      <trkpt lat="46.220663" lon="6.149929">
        <ele>391</ele>
      </trkpt>
      <trkpt lat="46.220889" lon="6.149908">
        <ele>391.4</ele>
      </trkpt>
      <trkpt lat="46.221110" lon="6.149806">
        <ele>391.8</ele>
      </trkpt>
      <trkpt lat="46.222174" lon="6.149258">
        <ele>389.9</ele>
      </trkpt>
      <trkpt lat="46.224795" lon="6.148011">
        <ele>383</ele>
      </trkpt>
      <trkpt lat="46.225027" lon="6.147933">
        <ele>382.6</ele>
      </trkpt>
      <trkpt lat="46.225338" lon="6.147896">
        <ele>382.4</ele>
      </trkpt>
      <trkpt lat="46.225843" lon="6.147964">
        <ele>382</ele>
      </trkpt>
      <trkpt lat="46.227484" lon="6.148659">
        <ele>379.6</ele>
      </trkpt>
      <trkpt lat="46.228389" lon="6.148964">
        <ele>379.7</ele>
      </trkpt>
      <trkpt lat="46.229686" lon="6.149255">
        <ele>379.9</ele>
      </trkpt>
      <trkpt lat="46.230906" lon="6.149407">
        <ele>378.3</ele>
      </trkpt>
      <trkpt lat="46.231567" lon="6.149439">
        <ele>379.5</ele>
      </trkpt>
      <trkpt lat="46.232602" lon="6.149422">
        <ele>381</ele>
      </trkpt>
      <trkpt lat="46.237063" lon="6.148960">
        <ele>385.3</ele>
      </trkpt>
      <trkpt lat="46.237952" lon="6.148995">
        <ele>384.7</ele>
      </trkpt>
      <trkpt lat="46.238608" lon="6.149137">
        <ele>386.5</ele>
      </trkpt>
      <trkpt lat="46.239405" lon="6.149456">
        <ele>386.5</ele>
      </trkpt>
      <trkpt lat="46.240050" lon="6.149826">
        <ele>384.8</ele>
      </trkpt>
      <trkpt lat="46.241462" lon="6.150786">
        <ele>382.3</ele>
      </trkpt>
      <trkpt lat="46.241499" lon="6.150657">
        <ele>382.7</ele>
      </trkpt>
      <trkpt lat="46.242397" lon="6.151103">
        <ele>380.6</ele>
      </trkpt>
      <trkpt lat="46.243147" lon="6.151327">
        <ele>380.4</ele>
      </trkpt>
      <trkpt lat="46.243588" lon="6.151385">
        <ele>381.1</ele>
      </trkpt>
      <trkpt lat="46.244378" lon="6.151373">
        <ele>382.5</ele>
      </trkpt>
      <trkpt lat="46.245156" lon="6.151135">
        <ele>384.5</ele>
      </trkpt>
      <trkpt lat="46.245869" lon="6.151379">
        <ele>381.8</ele>
      </trkpt>
      <trkpt lat="46.246366" lon="6.151349">
        <ele>380.6</ele>
      </trkpt>
      <trkpt lat="46.246378" lon="6.151458">
        <ele>380.6</ele>
      </trkpt>
      <trkpt lat="46.247180" lon="6.151244">
        <ele>381.7</ele>
      </trkpt>
      <trkpt lat="46.248329" lon="6.150828">
        <ele>381.3</ele>
      </trkpt>
      <trkpt lat="46.248835" lon="6.150761">
        <ele>380.8</ele>
      </trkpt>
      <trkpt lat="46.250134" lon="6.150903">
        <ele>381.9</ele>
      </trkpt>
      <trkpt lat="46.251409" lon="6.151193">
        <ele>382.8</ele>
      </trkpt>
      <trkpt lat="46.251814" lon="6.151399">
        <ele>382.1</ele>
      </trkpt>
      <trkpt lat="46.252156" lon="6.151675">
        <ele>381.8</ele>
      </trkpt>
      <trkpt lat="46.255067" lon="6.155222">
        <ele>379.9</ele>
      </trkpt>
      <trkpt lat="46.255515" lon="6.155743">
        <ele>378.5</ele>
      </trkpt>
      <trkpt lat="46.255761" lon="6.155969">
        <ele>377.9</ele>
      </trkpt>
      <trkpt lat="46.256094" lon="6.156120">
        <ele>380</ele>
      </trkpt>
      <trkpt lat="46.257666" lon="6.156572">
        <ele>381.5</ele>
      </trkpt>
      <trkpt lat="46.257705" lon="6.156455">
        <ele>381.5</ele>
      </trkpt>
      <trkpt lat="46.257794" lon="6.156451">
        <ele>381.5</ele>
      </trkpt>
      <trkpt lat="46.257896" lon="6.156210">
        <ele>382.1</ele>
      </trkpt>
      <trkpt lat="46.258132" lon="6.155816">
        <ele>382.5</ele>
      </trkpt>
      <trkpt lat="46.258618" lon="6.156490">
        <ele>382.4</ele>
      </trkpt>
      <trkpt lat="46.259008" lon="6.156962">
        <ele>382.6</ele>
      </trkpt>
      <trkpt lat="46.259774" lon="6.157667">
        <ele>383.6</ele>
      </trkpt>
      <trkpt lat="46.259922" lon="6.157734">
        <ele>384.5</ele>
      </trkpt>
      <trkpt lat="46.260086" lon="6.157722">
        <ele>386</ele>
      </trkpt>
      <trkpt lat="46.260648" lon="6.157338">
        <ele>393.4</ele>
      </trkpt>
      <trkpt lat="46.261082" lon="6.157208">
        <ele>398.1</ele>
      </trkpt>
      <trkpt lat="46.261294" lon="6.156927">
        <ele>400.8</ele>
      </trkpt>
      <trkpt lat="46.261809" lon="6.155992">
        <ele>408.8</ele>
      </trkpt>
      <trkpt lat="46.262100" lon="6.155545">
        <ele>409.8</ele>
      </trkpt>
      <trkpt lat="46.262188" lon="6.155483">
        <ele>409.7</ele>
      </trkpt>
      <trkpt lat="46.262285" lon="6.155528">
        <ele>409.7</ele>
      </trkpt>
      <trkpt lat="46.262684" lon="6.155933">
        <ele>408.9</ele>
      </trkpt>
      <trkpt lat="46.263275" lon="6.156623">
        <ele>408.5</ele>
      </trkpt>
      <trkpt lat="46.264494" lon="6.157424">
        <ele>410.6</ele>
      </trkpt>
      <trkpt lat="46.264597" lon="6.157364">
        <ele>411.1</ele>
      </trkpt>
      <trkpt lat="46.264658" lon="6.157233">
        <ele>411.1</ele>
      </trkpt>
      <trkpt lat="46.264892" lon="6.156181">
        <ele>412.2</ele>
      </trkpt>
      <trkpt lat="46.265049" lon="6.155811">
        <ele>411.7</ele>
      </trkpt>
      <trkpt lat="46.265999" lon="6.156853">
        <ele>414.9</ele>
      </trkpt>
      <trkpt lat="46.267388" lon="6.157867">
        <ele>412.8</ele>
      </trkpt>
      <trkpt lat="46.267762" lon="6.158097">
        <ele>412.4</ele>
      </trkpt>
      <trkpt lat="46.268110" lon="6.158233">
        <ele>412.1</ele>
      </trkpt>
      <trkpt lat="46.268601" lon="6.158345">
        <ele>412.3</ele>
      </trkpt>
      <trkpt lat="46.269782" lon="6.158502">
        <ele>410.6</ele>
      </trkpt>
      <trkpt lat="46.270533" lon="6.158647">
        <ele>409.6</ele>
      </trkpt>
      <trkpt lat="46.271572" lon="6.159315">
        <ele>411.7</ele>
      </trkpt>
      <trkpt lat="46.271725" lon="6.159557">
        <ele>412.1</ele>
      </trkpt>
      <trkpt lat="46.272066" lon="6.160454">
        <ele>411</ele>
      </trkpt>
      <trkpt lat="46.272356" lon="6.161870">
        <ele>407.6</ele>
      </trkpt>
      <trkpt lat="46.272439" lon="6.162048">
        <ele>407</ele>
      </trkpt>
      <trkpt lat="46.273587" lon="6.163217">
        <ele>401</ele>
      </trkpt>
      <trkpt lat="46.273834" lon="6.163442">
        <ele>400.7</ele>
      </trkpt>
      <trkpt lat="46.274456" lon="6.163892">
        <ele>396</ele>
      </trkpt>
      <trkpt lat="46.274448" lon="6.163983">
        <ele>395.4</ele>
      </trkpt>
      <trkpt lat="46.274684" lon="6.164104">
        <ele>394.8</ele>
      </trkpt>
      <trkpt lat="46.275599" lon="6.165215">
        <ele>388.8</ele>
      </trkpt>
      <trkpt lat="46.275835" lon="6.165364">
        <ele>385</ele>
      </trkpt>
      <trkpt lat="46.276243" lon="6.165507">
        <ele>381.9</ele>
      </trkpt>
      <trkpt lat="46.276289" lon="6.165597">
        <ele>381</ele>
      </trkpt>
      <trkpt lat="46.276321" lon="6.165946">
        <ele>381.1</ele>
      </trkpt>
      <trkpt lat="46.276524" lon="6.165943">
        <ele>380.9</ele>
      </trkpt>
      <trkpt lat="46.276547" lon="6.165846">
        <ele>380.9</ele>
      </trkpt>
      <trkpt lat="46.276617" lon="6.165786">
        <ele>380.7</ele>
      </trkpt>
      <trkpt lat="46.277173" lon="6.165777">
        <ele>381.7</ele>
      </trkpt>
      <trkpt lat="46.277058" lon="6.166340">
        <ele>381.6</ele>
      </trkpt>
      <trkpt lat="46.277080" lon="6.166425">
        <ele>381.5</ele>
      </trkpt>
      <trkpt lat="46.277138" lon="6.166459">
        <ele>381.5</ele>
      </trkpt>
      <trkpt lat="46.277504" lon="6.166418">
        <ele>382.8</ele>
      </trkpt>
      <trkpt lat="46.277651" lon="6.166443">
        <ele>383.6</ele>
      </trkpt>
      <trkpt lat="46.277800" lon="6.166342">
        <ele>384.5</ele>
      </trkpt>
      <trkpt lat="46.277955" lon="6.166492">
        <ele>385.2</ele>
      </trkpt>
      <trkpt lat="46.278076" lon="6.166534">
        <ele>385.2</ele>
      </trkpt>
      <trkpt lat="46.279340" lon="6.166269">
        <ele>387.9</ele>
      </trkpt>
      <trkpt lat="46.280757" lon="6.165406">
        <ele>389.3</ele>
      </trkpt>
      <trkpt lat="46.280910" lon="6.165376">
        <ele>389.3</ele>
      </trkpt>
      <trkpt lat="46.281364" lon="6.165122">
        <ele>390</ele>
      </trkpt>
      <trkpt lat="46.281961" lon="6.165042">
        <ele>390.9</ele>
      </trkpt>
      <trkpt lat="46.282041" lon="6.164924">
        <ele>390.9</ele>
      </trkpt>
      <trkpt lat="46.283327" lon="6.163838">
        <ele>394.8</ele>
      </trkpt>
      <trkpt lat="46.283549" lon="6.163715">
        <ele>395</ele>
      </trkpt>
      <trkpt lat="46.283720" lon="6.163709">
        <ele>395</ele>
      </trkpt>
      <trkpt lat="46.283746" lon="6.163608">
        <ele>396.6</ele>
      </trkpt>
      <trkpt lat="46.283941" lon="6.163396">
        <ele>398.8</ele>
      </trkpt>
      <trkpt lat="46.284133" lon="6.163341">
        <ele>399.2</ele>
      </trkpt>
      <trkpt lat="46.284193" lon="6.163388">
        <ele>399.2</ele>
      </trkpt>
      <trkpt lat="46.284103" lon="6.163725">
        <ele>395.9</ele>
      </trkpt>
      <trkpt lat="46.284042" lon="6.163723">
        <ele>395.4</ele>
      </trkpt>
      <trkpt lat="46.284283" lon="6.162351">
        <ele>404.2</ele>
      </trkpt>
      <trkpt lat="46.284415" lon="6.161873">
        <ele>406.4</ele>
      </trkpt>
      <trkpt lat="46.284565" lon="6.161570">
        <ele>407.1</ele>
      </trkpt>
      <trkpt lat="46.284788" lon="6.161393">
        <ele>407.2</ele>
      </trkpt>
      <trkpt lat="46.287019" lon="6.160231">
        <ele>408.4</ele>
      </trkpt>
      <trkpt lat="46.288038" lon="6.159596">
        <ele>409.6</ele>
      </trkpt>
      <trkpt lat="46.288923" lon="6.159113">
        <ele>412.9</ele>
      </trkpt>
      <trkpt lat="46.289209" lon="6.158896">
        <ele>415.2</ele>
      </trkpt>
      <trkpt lat="46.289363" lon="6.158693">
        <ele>416.3</ele>
      </trkpt>
      <trkpt lat="46.289845" lon="6.157855">
        <ele>418.8</ele>
      </trkpt>
      <trkpt lat="46.291964" lon="6.153979">
        <ele>420.7</ele>
      </trkpt>
      <trkpt lat="46.292069" lon="6.153858">
        <ele>421.2</ele>
      </trkpt>
      <trkpt lat="46.292224" lon="6.153787">
        <ele>421</ele>
      </trkpt>
      <trkpt lat="46.292303" lon="6.153622">
        <ele>421.3</ele>
      </trkpt>
      <trkpt lat="46.292345" lon="6.153623">
        <ele>421.3</ele>
      </trkpt>
      <trkpt lat="46.293595" lon="6.154802">
        <ele>421.1</ele>
      </trkpt>
      <trkpt lat="46.293776" lon="6.154916">
        <ele>421.1</ele>
      </trkpt>
      <trkpt lat="46.294025" lon="6.155228">
        <ele>421.9</ele>
      </trkpt>
      <trkpt lat="46.295663" lon="6.156774">
        <ele>421.9</ele>
      </trkpt>
      <trkpt lat="46.296109" lon="6.157284">
        <ele>421.4</ele>
      </trkpt>
      <trkpt lat="46.296226" lon="6.157455">
        <ele>421.8</ele>
      </trkpt>
      <trkpt lat="46.296197" lon="6.157505">
        <ele>421</ele>
      </trkpt>
      <trkpt lat="46.296541" lon="6.158090">
        <ele>421.4</ele>
      </trkpt>
      <trkpt lat="46.296702" lon="6.158480">
        <ele>421.4</ele>
      </trkpt>
      <trkpt lat="46.297069" lon="6.159697">
        <ele>419.7</ele>
      </trkpt>
      <trkpt lat="46.297842" lon="6.161874">
        <ele>415.7</ele>
      </trkpt>
      <trkpt lat="46.298094" lon="6.162465">
        <ele>415.4</ele>
      </trkpt>
      <trkpt lat="46.299409" lon="6.164336">
        <ele>413.8</ele>
      </trkpt>
      <trkpt lat="46.299654" lon="6.164588">
        <ele>413.2</ele>
      </trkpt>
      <trkpt lat="46.300966" lon="6.165726">
        <ele>411.6</ele>
      </trkpt>
      <trkpt lat="46.301213" lon="6.165984">
        <ele>411.4</ele>
      </trkpt>
      <trkpt lat="46.303123" lon="6.168795">
        <ele>410.5</ele>
      </trkpt>
      <trkpt lat="46.303292" lon="6.169190">
        <ele>410.5</ele>
      </trkpt>
      <trkpt lat="46.303381" lon="6.169604">
        <ele>410.4</ele>
      </trkpt>
      <trkpt lat="46.304389" lon="6.170152">
        <ele>411</ele>
      </trkpt>
      <trkpt lat="46.304637" lon="6.170374">
        <ele>412.1</ele>
      </trkpt>
      <trkpt lat="46.304934" lon="6.170729">
        <ele>411.2</ele>
      </trkpt>
      <trkpt lat="46.305359" lon="6.171326">
        <ele>410.6</ele>
      </trkpt>
      <trkpt lat="46.305559" lon="6.171661">
        <ele>410.3</ele>
      </trkpt>
      <trkpt lat="46.305852" lon="6.172304">
        <ele>410.1</ele>
      </trkpt>
      <trkpt lat="46.305985" lon="6.172456">
        <ele>409.7</ele>
      </trkpt>
      <trkpt lat="46.306103" lon="6.172494">
        <ele>409.3</ele>
      </trkpt>
      <trkpt lat="46.306569" lon="6.172401">
        <ele>408.6</ele>
      </trkpt>
      <trkpt lat="46.307624" lon="6.172371">
        <ele>409.1</ele>
      </trkpt>
      <trkpt lat="46.307907" lon="6.172402">
        <ele>409.7</ele>
      </trkpt>
      <trkpt lat="46.308230" lon="6.172565">
        <ele>410.9</ele>
      </trkpt>
      <trkpt lat="46.309041" lon="6.173224">
        <ele>413.6</ele>
      </trkpt>
      <trkpt lat="46.309543" lon="6.173422">
        <ele>414.6</ele>
      </trkpt>
      <trkpt lat="46.309893" lon="6.173510">
        <ele>414.6</ele>
      </trkpt>
      <trkpt lat="46.309927" lon="6.173470">
        <ele>414.6</ele>
      </trkpt>
      <trkpt lat="46.309966" lon="6.173488">
        <ele>414.6</ele>
      </trkpt>
      <trkpt lat="46.309971" lon="6.173566">
        <ele>414.6</ele>
      </trkpt>
      <trkpt lat="46.309909" lon="6.173584">
        <ele>414.6</ele>
      </trkpt>
      <trkpt lat="46.309121" lon="6.175754">
        <ele>412.3</ele>
      </trkpt>
      <trkpt lat="46.308865" lon="6.176337">
        <ele>411.5</ele>
      </trkpt>
      <trkpt lat="46.309087" lon="6.177780">
        <ele>408.7</ele>
      </trkpt>
      <trkpt lat="46.309298" lon="6.177841">
        <ele>408.8</ele>
      </trkpt>
      <trkpt lat="46.309455" lon="6.177943">
        <ele>408.9</ele>
      </trkpt>
      <trkpt lat="46.310628" lon="6.179028">
        <ele>407.9</ele>
      </trkpt>
      <trkpt lat="46.310971" lon="6.179515">
        <ele>407.7</ele>
      </trkpt>
      <trkpt lat="46.311762" lon="6.180880">
        <ele>406.5</ele>
      </trkpt>
      <trkpt lat="46.312053" lon="6.181304">
        <ele>405.8</ele>
      </trkpt>
      <trkpt lat="46.312189" lon="6.181558">
        <ele>404.8</ele>
      </trkpt>
      <trkpt lat="46.312292" lon="6.181982">
        <ele>404.2</ele>
      </trkpt>
      <trkpt lat="46.312288" lon="6.182275">
        <ele>403.6</ele>
      </trkpt>
      <trkpt lat="46.312177" lon="6.182913">
        <ele>402.2</ele>
      </trkpt>
      <trkpt lat="46.313561" lon="6.183613">
        <ele>401.1</ele>
      </trkpt>
      <trkpt lat="46.314385" lon="6.184361">
        <ele>401.2</ele>
      </trkpt>
      <trkpt lat="46.314830" lon="6.184687">
        <ele>400.3</ele>
      </trkpt>
      <trkpt lat="46.315409" lon="6.184971">
        <ele>398.4</ele>
      </trkpt>
      <trkpt lat="46.316251" lon="6.185270">
        <ele>397.7</ele>
      </trkpt>
      <trkpt lat="46.316621" lon="6.185442">
        <ele>398.3</ele>
      </trkpt>
      <trkpt lat="46.318375" lon="6.186835">
        <ele>399.4</ele>
      </trkpt>
      <trkpt lat="46.319106" lon="6.187570">
        <ele>399.3</ele>
      </trkpt>
      <trkpt lat="46.319377" lon="6.187710">
        <ele>398.6</ele>
      </trkpt>
      <trkpt lat="46.319645" lon="6.187772">
        <ele>398.6</ele>
      </trkpt>
      <trkpt lat="46.319816" lon="6.187768">
        <ele>398.7</ele>
      </trkpt>
      <trkpt lat="46.320712" lon="6.187573">
        <ele>401.2</ele>
      </trkpt>
      <trkpt lat="46.321114" lon="6.187608">
        <ele>402.3</ele>
      </trkpt>
      <trkpt lat="46.322616" lon="6.188316">
        <ele>402.1</ele>
      </trkpt>
      <trkpt lat="46.322684" lon="6.188313">
        <ele>402.4</ele>
      </trkpt>
      <trkpt lat="46.322766" lon="6.188423">
        <ele>402.4</ele>
      </trkpt>
      <trkpt lat="46.323399" lon="6.188974">
        <ele>401.7</ele>
      </trkpt>
      <trkpt lat="46.323744" lon="6.189257">
        <ele>401.5</ele>
      </trkpt>
      <trkpt lat="46.323918" lon="6.189354">
        <ele>401.2</ele>
      </trkpt>
      <trkpt lat="46.325234" lon="6.189875">
        <ele>400.9</ele>
      </trkpt>
      <trkpt lat="46.325366" lon="6.189887">
        <ele>401.1</ele>
      </trkpt>
      <trkpt lat="46.325459" lon="6.189835">
        <ele>401.2</ele>
      </trkpt>
      <trkpt lat="46.325651" lon="6.189519">
        <ele>403</ele>
      </trkpt>
      <trkpt lat="46.325807" lon="6.189394">
        <ele>403.2</ele>
      </trkpt>
      <trkpt lat="46.326327" lon="6.189429">
        <ele>403.8</ele>
      </trkpt>
      <trkpt lat="46.326655" lon="6.189535">
        <ele>404.8</ele>
      </trkpt>
      <trkpt lat="46.326956" lon="6.189673">
        <ele>404.9</ele>
      </trkpt>
      <trkpt lat="46.327368" lon="6.189958">
        <ele>404.6</ele>
      </trkpt>
      <trkpt lat="46.327952" lon="6.190251">
        <ele>403.9</ele>
      </trkpt>
      <trkpt lat="46.328990" lon="6.190656">
        <ele>401.9</ele>
      </trkpt>
      <trkpt lat="46.329058" lon="6.190614">
        <ele>403.4</ele>
      </trkpt>
      <trkpt lat="46.329557" lon="6.191092">
        <ele>401.4</ele>
      </trkpt>
      <trkpt lat="46.330040" lon="6.191621">
        <ele>400.5</ele>
      </trkpt>
      <trkpt lat="46.330132" lon="6.191678">
        <ele>401.1</ele>
      </trkpt>
      <trkpt lat="46.330594" lon="6.191878">
        <ele>401.9</ele>
      </trkpt>
      <trkpt lat="46.331175" lon="6.191986">
        <ele>402.3</ele>
      </trkpt>
      <trkpt lat="46.331819" lon="6.192182">
        <ele>402.4</ele>
      </trkpt>
      <trkpt lat="46.332858" lon="6.192658">
        <ele>399.7</ele>
      </trkpt>
      <trkpt lat="46.333196" lon="6.192746">
        <ele>399.4</ele>
      </trkpt>
      <trkpt lat="46.333375" lon="6.192847">
        <ele>398.8</ele>
      </trkpt>
      <trkpt lat="46.333784" lon="6.193312">
        <ele>398.8</ele>
      </trkpt>
      <trkpt lat="46.334216" lon="6.194207">
        <ele>397.8</ele>
      </trkpt>
      <trkpt lat="46.334584" lon="6.194706">
        <ele>397.3</ele>
      </trkpt>
      <trkpt lat="46.335017" lon="6.195492">
        <ele>395.6</ele>
      </trkpt>
      <trkpt lat="46.335854" lon="6.194845">
        <ele>397.2</ele>
      </trkpt>
      <trkpt lat="46.336052" lon="6.194775">
        <ele>397.2</ele>
      </trkpt>
      <trkpt lat="46.336526" lon="6.194872">
        <ele>397</ele>
      </trkpt>
      <trkpt lat="46.337386" lon="6.195242">
        <ele>394.7</ele>
      </trkpt>
      <trkpt lat="46.337981" lon="6.195272">
        <ele>394.7</ele>
      </trkpt>
      <trkpt lat="46.338278" lon="6.195334">
        <ele>395.3</ele>
      </trkpt>
      <trkpt lat="46.338500" lon="6.195436">
        <ele>395.9</ele>
      </trkpt>
      <trkpt lat="46.339398" lon="6.196057">
        <ele>393.6</ele>
      </trkpt>
      <trkpt lat="46.340309" lon="6.196511">
        <ele>392.9</ele>
      </trkpt>
      <trkpt lat="46.340809" lon="6.196804">
        <ele>392.7</ele>
      </trkpt>
      <trkpt lat="46.341258" lon="6.197233">
        <ele>393.4</ele>
      </trkpt>
      <trkpt lat="46.341878" lon="6.198085">
        <ele>392.1</ele>
      </trkpt>
      <trkpt lat="46.342182" lon="6.198343">
        <ele>391.4</ele>
      </trkpt>
      <trkpt lat="46.345315" lon="6.199028">
        <ele>389.7</ele>
      </trkpt>
      <trkpt lat="46.347445" lon="6.199552">
        <ele>396</ele>
      </trkpt>
      <trkpt lat="46.348398" lon="6.199986">
        <ele>395.8</ele>
      </trkpt>
      <trkpt lat="46.348697" lon="6.199957">
        <ele>398</ele>
      </trkpt>
      <trkpt lat="46.348915" lon="6.199824">
        <ele>399.4</ele>
      </trkpt>
      <trkpt lat="46.348817" lon="6.199424">
        <ele>399.2</ele>
      </trkpt>
      <trkpt lat="46.348828" lon="6.199197">
        <ele>399.9</ele>
      </trkpt>
      <trkpt lat="46.348880" lon="6.199000">
        <ele>401.3</ele>
      </trkpt>
      <trkpt lat="46.349284" lon="6.198316">
        <ele>408</ele>
      </trkpt>
      <trkpt lat="46.349546" lon="6.198009">
        <ele>410.5</ele>
      </trkpt>
      <trkpt lat="46.349606" lon="6.197836">
        <ele>411.6</ele>
      </trkpt>
      <trkpt lat="46.349611" lon="6.197612">
        <ele>412.7</ele>
      </trkpt>
      <trkpt lat="46.349204" lon="6.196275">
        <ele>418.3</ele>
      </trkpt>
      <trkpt lat="46.349181" lon="6.195997">
        <ele>420.3</ele>
      </trkpt>
      <trkpt lat="46.349230" lon="6.195867">
        <ele>420.3</ele>
      </trkpt>
      <trkpt lat="46.349348" lon="6.195795">
        <ele>421.7</ele>
      </trkpt>
      <trkpt lat="46.349426" lon="6.195817">
        <ele>421.7</ele>
      </trkpt>
      <trkpt lat="46.349909" lon="6.196285">
        <ele>423.6</ele>
      </trkpt>
      <trkpt lat="46.350050" lon="6.196317">
        <ele>423.2</ele>
      </trkpt>
      <trkpt lat="46.350127" lon="6.196264">
        <ele>425.3</ele>
      </trkpt>
      <trkpt lat="46.350187" lon="6.196144">
        <ele>427.2</ele>
      </trkpt>
      <trkpt lat="46.350337" lon="6.195498">
        <ele>430.3</ele>
      </trkpt>
      <trkpt lat="46.350415" lon="6.195276">
        <ele>431.4</ele>
      </trkpt>
      <trkpt lat="46.350873" lon="6.195674">
        <ele>431.7</ele>
      </trkpt>
      <trkpt lat="46.350986" lon="6.195615">
        <ele>431.8</ele>
      </trkpt>
      <trkpt lat="46.351105" lon="6.195409">
        <ele>431.9</ele>
      </trkpt>
      <trkpt lat="46.351181" lon="6.195387">
        <ele>431.9</ele>
      </trkpt>
      <trkpt lat="46.352231" lon="6.196207">
        <ele>431.8</ele>
      </trkpt>
      <trkpt lat="46.352486" lon="6.196634">
        <ele>431.3</ele>
      </trkpt>
      <trkpt lat="46.352843" lon="6.197474">
        <ele>431</ele>
      </trkpt>
      <trkpt lat="46.353525" lon="6.198501">
        <ele>427.9</ele>
      </trkpt>
      <trkpt lat="46.354369" lon="6.199961">
        <ele>425.5</ele>
      </trkpt>
      <trkpt lat="46.354856" lon="6.200647">
        <ele>424.7</ele>
      </trkpt>
      <trkpt lat="46.355569" lon="6.201554">
        <ele>426.5</ele>
      </trkpt>
      <trkpt lat="46.356115" lon="6.202441">
        <ele>426.7</ele>
      </trkpt>
      <trkpt lat="46.357051" lon="6.203446">
        <ele>424.4</ele>
      </trkpt>
      <trkpt lat="46.357178" lon="6.203629">
        <ele>423.9</ele>
      </trkpt>
      <trkpt lat="46.357393" lon="6.204058">
        <ele>423.9</ele>
      </trkpt>
      <trkpt lat="46.358539" lon="6.205356">
        <ele>424.9</ele>
      </trkpt>
      <trkpt lat="46.359331" lon="6.206076">
        <ele>426.5</ele>
      </trkpt>
      <trkpt lat="46.359739" lon="6.206385">
        <ele>425.8</ele>
      </trkpt>
      <trkpt lat="46.362555" lon="6.200799">
        <ele>439.5</ele>
      </trkpt>
      <trkpt lat="46.362910" lon="6.200152">
        <ele>440.4</ele>
      </trkpt>
      <trkpt lat="46.363097" lon="6.199900">
        <ele>440.9</ele>
      </trkpt>
      <trkpt lat="46.363922" lon="6.199054">
        <ele>441.7</ele>
      </trkpt>
      <trkpt lat="46.364813" lon="6.198008">
        <ele>442.4</ele>
      </trkpt>
      <trkpt lat="46.365194" lon="6.197506">
        <ele>442</ele>
      </trkpt>
      <trkpt lat="46.365459" lon="6.197061">
        <ele>441.8</ele>
      </trkpt>
      <trkpt lat="46.368294" lon="6.199787">
        <ele>444.5</ele>
      </trkpt>
      <trkpt lat="46.368720" lon="6.200143">
        <ele>442.1</ele>
      </trkpt>
      <trkpt lat="46.372329" lon="6.202509">
        <ele>438.7</ele>
      </trkpt>
      <trkpt lat="46.374985" lon="6.203843">
        <ele>432.3</ele>
      </trkpt>
      <trkpt lat="46.375050" lon="6.203947">
        <ele>432.3</ele>
      </trkpt>
      <trkpt lat="46.375279" lon="6.204986">
        <ele>431.5</ele>
      </trkpt>
      <trkpt lat="46.375490" lon="6.206566">
        <ele>429.9</ele>
      </trkpt>
      <trkpt lat="46.375501" lon="6.207018">
        <ele>429</ele>
      </trkpt>
      <trkpt lat="46.375414" lon="6.208085">
        <ele>424.8</ele>
      </trkpt>
      <trkpt lat="46.375417" lon="6.208593">
        <ele>422.7</ele>
      </trkpt>
      <trkpt lat="46.375490" lon="6.208618">
        <ele>422.1</ele>
      </trkpt>
      <trkpt lat="46.375764" lon="6.209463">
        <ele>421.6</ele>
      </trkpt>
      <trkpt lat="46.376070" lon="6.210101">
        <ele>422.6</ele>
      </trkpt>
      <trkpt lat="46.376255" lon="6.210579">
        <ele>424</ele>
      </trkpt>
      <trkpt lat="46.376694" lon="6.212032">
        <ele>424.3</ele>
      </trkpt>
      <trkpt lat="46.377363" lon="6.214477">
        <ele>418.7</ele>
      </trkpt>
      <trkpt lat="46.378865" lon="6.218013">
        <ele>415.4</ele>
      </trkpt>
      <trkpt lat="46.379121" lon="6.218821">
        <ele>412.7</ele>
      </trkpt>
      <trkpt lat="46.379192" lon="6.219313">
        <ele>409.8</ele>
      </trkpt>
      <trkpt lat="46.379197" lon="6.220274">
        <ele>410.3</ele>
      </trkpt>
      <trkpt lat="46.379166" lon="6.220619">
        <ele>411.5</ele>
      </trkpt>
      <trkpt lat="46.379208" lon="6.221465">
        <ele>407.6</ele>
      </trkpt>
      <trkpt lat="46.378575" lon="6.223399">
        <ele>406.1</ele>
      </trkpt>
      <trkpt lat="46.377928" lon="6.224360">
        <ele>408.3</ele>
      </trkpt>
      <trkpt lat="46.376609" lon="6.226473">
        <ele>400.6</ele>
      </trkpt>
      <trkpt lat="46.376402" lon="6.226788">
        <ele>399.1</ele>
      </trkpt>
      <trkpt lat="46.376348" lon="6.226821">
        <ele>398.2</ele>
      </trkpt>
      <trkpt lat="46.376562" lon="6.226917">
        <ele>399.1</ele>
      </trkpt>
      <trkpt lat="46.377524" lon="6.227889">
        <ele>397.7</ele>
      </trkpt>
      <trkpt lat="46.377983" lon="6.228535">
        <ele>395.1</ele>
      </trkpt>
      <trkpt lat="46.378746" lon="6.229440">
        <ele>392.4</ele>
      </trkpt>
      <trkpt lat="46.379241" lon="6.230010">
        <ele>396.7</ele>
      </trkpt>
      <trkpt lat="46.379885" lon="6.230630">
        <ele>400.1</ele>
      </trkpt>
      <trkpt lat="46.380665" lon="6.231626">
        <ele>405.4</ele>
      </trkpt>
      <trkpt lat="46.380644" lon="6.231706">
        <ele>405.4</ele>
      </trkpt>
      <trkpt lat="46.381792" lon="6.232984">
        <ele>404.3</ele>
      </trkpt>
      <trkpt lat="46.383136" lon="6.234727">
        <ele>403.1</ele>
        <extensions>
          <visugpx:TrkExtension xmlns:visugpx="https://www.visugpx.com/editgpx/">
            <visugpx:node>2</visugpx:node>
          </visugpx:TrkExtension>
        </extensions>
      </trkpt>
      <trkpt lat="46.383230" lon="6.234698">
        <ele>402.801793</ele>
        <time>2025-12-27T18:22:55.875Z</time>
        <extensions>
          <visugpx:TrkExtension xmlns:visugpx="https://www.visugpx.com/editgpx/">
            <visugpx:node>3</visugpx:node>
          </visugpx:TrkExtension>
        </extensions>
      </trkpt>
      <trkpt lat="46.383257" lon="6.234613">
        <ele>402.78492</ele>
        <time>2025-12-27T18:22:57.427Z</time>
      </trkpt>
      <trkpt lat="46.383336" lon="6.234347">
        <ele>402.732705</ele>
        <time>2025-12-27T18:23:02.236Z</time>
      </trkpt>
      <trkpt lat="46.383367" lon="6.234247">
        <ele>402.810038</ele>
        <time>2025-12-27T18:23:03.955Z</time>
      </trkpt>
      <trkpt lat="46.383384" lon="6.234190">
        <ele>402.857194</ele>
        <time>2025-12-27T18:23:04.947Z</time>
      </trkpt>
      <trkpt lat="46.383441" lon="6.234226">
        <ele>402.925636</ele>
        <time>2025-12-27T18:23:06.803Z</time>
      </trkpt>
      <trkpt lat="46.383523" lon="6.234006">
        <ele>403.115523</ele>
        <time>2025-12-27T18:23:10.572Z</time>
      </trkpt>
      <trkpt lat="46.383660" lon="6.234110">
        <ele>403.28576</ele>
        <time>2025-12-27T18:23:13.745Z</time>
      </trkpt>
      <trkpt lat="46.383719" lon="6.234165">
        <ele>403.362977</ele>
        <time>2025-12-27T18:23:15.189Z</time>
      </trkpt>
      <trkpt lat="46.383885" lon="6.234335">
        <ele>403.586708</ele>
        <time>2025-12-27T18:23:19.418Z</time>
      </trkpt>
      <trkpt lat="46.383965" lon="6.234452">
        <ele>403.711803</ele>
        <time>2025-12-27T18:23:21.880Z</time>
      </trkpt>
      <trkpt lat="46.384349" lon="6.234881">
        <ele>404.245474</ele>
        <time>2025-12-27T18:23:35.486Z</time>
      </trkpt>
      <trkpt lat="46.384379" lon="6.234902">
        <ele>404.282146</ele>
        <time>2025-12-27T18:23:36.556Z</time>
      </trkpt>
      <trkpt lat="46.384445" lon="6.234953">
        <ele>404.364476</ele>
        <time>2025-12-27T18:23:39.250Z</time>
      </trkpt>
      <trkpt lat="46.384509" lon="6.235002">
        <ele>404.444149</ele>
        <time>2025-12-27T18:23:41.870Z</time>
      </trkpt>
      <trkpt lat="46.384737" lon="6.235109">
        <ele>404.707956</ele>
        <time>2025-12-27T18:23:51.299Z</time>
      </trkpt>
      <trkpt lat="46.384767" lon="6.235121">
        <ele>404.818301</ele>
        <time>2025-12-27T18:23:52.573Z</time>
      </trkpt>
      <trkpt lat="46.385020" lon="6.235139">
        <ele>405.788325</ele>
        <time>2025-12-27T18:24:02.587Z</time>
      </trkpt>
      <trkpt lat="46.385187" lon="6.235113">
        <ele>406.431525</ele>
        <time>2025-12-27T18:24:09.540Z</time>
      </trkpt>
      <trkpt lat="46.385359" lon="6.235005">
        <ele>407.149326</ele>
        <time>2025-12-27T18:24:17.693Z</time>
      </trkpt>
      <trkpt lat="46.385782" lon="6.234719">
        <ele>408.936711</ele>
        <time>2025-12-27T18:24:39.328Z</time>
      </trkpt>
      <trkpt lat="46.385855" lon="6.234649">
        <ele>409.271884</ele>
        <time>2025-12-27T18:24:43.357Z</time>
      </trkpt>
      <trkpt lat="46.385983" lon="6.234528">
        <ele>409.857061</ele>
        <time>2025-12-27T18:24:50.360Z</time>
      </trkpt>
      <trkpt lat="46.386027" lon="6.234488">
        <ele>410.055947</ele>
        <time>2025-12-27T18:24:52.759Z</time>
      </trkpt>
      <trkpt lat="46.386510" lon="6.234065">
        <ele>411.998439</ele>
        <time>2025-12-27T18:25:15.102Z</time>
      </trkpt>
      <trkpt lat="46.387057" lon="6.233574">
        <ele>413.590594</ele>
        <time>2025-12-27T18:25:36.558Z</time>
      </trkpt>
      <trkpt lat="46.387547" lon="6.233153">
        <ele>415.000174</ele>
        <time>2025-12-27T18:25:56.018Z</time>
      </trkpt>
      <trkpt lat="46.387607" lon="6.233117">
        <ele>415.160872</ele>
        <time>2025-12-27T18:25:58.186Z</time>
      </trkpt>
      <trkpt lat="46.388318" lon="6.232737">
        <ele>416.774289</ele>
        <time>2025-12-27T18:26:22.124Z</time>
      </trkpt>
      <trkpt lat="46.388525" lon="6.232637">
        <ele>417.170783</ele>
        <time>2025-12-27T18:26:29.535Z</time>
      </trkpt>
      <trkpt lat="46.388863" lon="6.232473">
        <ele>417.818482</ele>
        <time>2025-12-27T18:26:41.798Z</time>
      </trkpt>
      <trkpt lat="46.388918" lon="6.232445">
        <ele>417.92441</ele>
        <time>2025-12-27T18:26:43.701Z</time>
      </trkpt>
      <trkpt lat="46.389467" lon="6.232178">
        <ele>418.976688</ele>
        <time>2025-12-27T18:27:00.991Z</time>
      </trkpt>
      <trkpt lat="46.389610" lon="6.232116">
        <ele>419.247919</ele>
        <time>2025-12-27T18:27:04.986Z</time>
      </trkpt>
      <trkpt lat="46.389679" lon="6.232088">
        <ele>419.360203</ele>
        <time>2025-12-27T18:27:06.914Z</time>
      </trkpt>
      <trkpt lat="46.390094" lon="6.231916">
        <ele>419.906639</ele>
        <time>2025-12-27T18:27:18.961Z</time>
      </trkpt>
      <trkpt lat="46.390102" lon="6.231944">
        <ele>419.933103</ele>
        <time>2025-12-27T18:27:19.542Z</time>
      </trkpt>
      <trkpt lat="46.390132" lon="6.231984">
        <ele>419.984703</ele>
        <time>2025-12-27T18:27:20.696Z</time>
      </trkpt>
      <trkpt lat="46.390192" lon="6.231980">
        <ele>420.060743</ele>
        <time>2025-12-27T18:27:22.376Z</time>
      </trkpt>
      <trkpt lat="46.390224" lon="6.231919">
        <ele>420.127664</ele>
        <time>2025-12-27T18:27:23.848Z</time>
      </trkpt>
      <trkpt lat="46.390211" lon="6.231837">
        <ele>420.201135</ele>
        <time>2025-12-27T18:27:25.457Z</time>
      </trkpt>
      <trkpt lat="46.390331" lon="6.231776">
        <ele>420.362122</ele>
        <time>2025-12-27T18:27:28.954Z</time>
      </trkpt>
      <trkpt lat="46.390553" lon="6.231725">
        <ele>420.64668</ele>
        <time>2025-12-27T18:27:35.070Z</time>
      </trkpt>
      <trkpt lat="46.390710" lon="6.231687">
        <ele>420.848192</ele>
        <time>2025-12-27T18:27:39.342Z</time>
      </trkpt>
      <trkpt lat="46.390983" lon="6.231611">
        <ele>421.200123</ele>
        <time>2025-12-27T18:27:47.058Z</time>
      </trkpt>
      <trkpt lat="46.391333" lon="6.231526">
        <ele>421.686315</ele>
        <time>2025-12-27T18:27:57.759Z</time>
      </trkpt>
      <trkpt lat="46.391361" lon="6.231519">
        <ele>421.747213</ele>
        <time>2025-12-27T18:27:58.665Z</time>
      </trkpt>
      <trkpt lat="46.391896" lon="6.231361">
        <ele>422.917431</ele>
        <time>2025-12-27T18:28:16.372Z</time>
      </trkpt>
      <trkpt lat="46.392124" lon="6.231294">
        <ele>423.416042</ele>
        <time>2025-12-27T18:28:24.481Z</time>
      </trkpt>
      <trkpt lat="46.392262" lon="6.231256">
        <ele>423.717105</ele>
        <time>2025-12-27T18:28:29.462Z</time>
      </trkpt>
      <trkpt lat="46.392594" lon="6.231151">
        <ele>424.445416</ele>
        <time>2025-12-27T18:28:41.525Z</time>
      </trkpt>
      <trkpt lat="46.393194" lon="6.230963">
        <ele>425.822578</ele>
        <time>2025-12-27T18:29:01.647Z</time>
      </trkpt>
      <trkpt lat="46.393225" lon="6.230948">
        <ele>425.90652</ele>
        <time>2025-12-27T18:29:02.644Z</time>
      </trkpt>
      <trkpt lat="46.393436" lon="6.230787">
        <ele>426.518952</ele>
        <time>2025-12-27T18:29:10.129Z</time>
      </trkpt>
      <trkpt lat="46.393590" lon="6.230620">
        <ele>427.012904</ele>
        <time>2025-12-27T18:29:16.401Z</time>
      </trkpt>
      <trkpt lat="46.393837" lon="6.230223">
        <ele>427.960071</ele>
        <time>2025-12-27T18:29:29.069Z</time>
      </trkpt>
      <trkpt lat="46.393949" lon="6.229996">
        <ele>428.45451</ele>
        <time>2025-12-27T18:29:35.725Z</time>
      </trkpt>
      <trkpt lat="46.394467" lon="6.228970">
        <ele>430.781035</ele>
        <time>2025-12-27T18:30:08.428Z</time>
      </trkpt>
      <trkpt lat="46.394642" lon="6.228630">
        <ele>431.620051</ele>
        <time>2025-12-27T18:30:20.553Z</time>
      </trkpt>
      <trkpt lat="46.394677" lon="6.228567">
        <ele>431.780039</ele>
        <time>2025-12-27T18:30:22.910Z</time>
      </trkpt>
      <trkpt lat="46.394995" lon="6.228022">
        <ele>433.191847</ele>
        <time>2025-12-27T18:30:42.210Z</time>
      </trkpt>
      <trkpt lat="46.395195" lon="6.227674">
        <ele>434.087699</ele>
        <time>2025-12-27T18:30:53.200Z</time>
      </trkpt>
      <trkpt lat="46.395407" lon="6.227306">
        <ele>435.035965</ele>
        <time>2025-12-27T18:31:04.393Z</time>
      </trkpt>
      <trkpt lat="46.395480" lon="6.227178">
        <ele>435.301778</ele>
        <time>2025-12-27T18:31:08.157Z</time>
      </trkpt>
      <trkpt lat="46.395697" lon="6.226800">
        <ele>435.825563</ele>
        <time>2025-12-27T18:31:18.525Z</time>
      </trkpt>
      <trkpt lat="46.396330" lon="6.225721">
        <ele>437.334194</ele>
        <time>2025-12-27T18:31:45.730Z</time>
      </trkpt>
      <trkpt lat="46.396501" lon="6.225420">
        <ele>437.749509</ele>
        <time>2025-12-27T18:31:53.891Z</time>
      </trkpt>
      <trkpt lat="46.396742" lon="6.225004">
        <ele>438.248328</ele>
        <time>2025-12-27T18:32:05.710Z</time>
      </trkpt>
      <trkpt lat="46.397194" lon="6.224227">
        <ele>439.062641</ele>
        <time>2025-12-27T18:32:28.108Z</time>
      </trkpt>
      <trkpt lat="46.397217" lon="6.224186">
        <ele>439.104979</ele>
        <time>2025-12-27T18:32:29.080Z</time>
      </trkpt>
      <trkpt lat="46.397281" lon="6.224224">
        <ele>439.185311</ele>
        <time>2025-12-27T18:32:30.897Z</time>
      </trkpt>
      <trkpt lat="46.397383" lon="6.224159">
        <ele>439.31473</ele>
        <time>2025-12-27T18:32:33.804Z</time>
      </trkpt>
      <trkpt lat="46.397589" lon="6.223878">
        <ele>439.643257</ele>
        <time>2025-12-27T18:32:41.223Z</time>
      </trkpt>
      <trkpt lat="46.397740" lon="6.223803">
        <ele>439.82866</ele>
        <time>2025-12-27T18:32:45.306Z</time>
      </trkpt>
      <trkpt lat="46.397842" lon="6.223817">
        <ele>439.947671</ele>
        <time>2025-12-27T18:32:47.893Z</time>
      </trkpt>
      <trkpt lat="46.397953" lon="6.223902">
        <ele>440.093482</ele>
        <time>2025-12-27T18:32:50.978Z</time>
      </trkpt>
      <trkpt lat="46.398204" lon="6.224058">
        <ele>440.320154</ele>
        <time>2025-12-27T18:32:57.219Z</time>
      </trkpt>
      <trkpt lat="46.398355" lon="6.224110">
        <ele>440.448663</ele>
        <time>2025-12-27T18:33:00.797Z</time>
      </trkpt>
      <trkpt lat="46.398574" lon="6.224136">
        <ele>440.630607</ele>
        <time>2025-12-27T18:33:05.893Z</time>
      </trkpt>
      <trkpt lat="46.399117" lon="6.224025">
        <ele>441.08467</ele>
        <time>2025-12-27T18:33:18.282Z</time>
      </trkpt>
      <trkpt lat="46.399295" lon="6.224036">
        <ele>441.232192</ele>
        <time>2025-12-27T18:33:23.180Z</time>
      </trkpt>
      <trkpt lat="46.400351" lon="6.224626">
        <ele>443.439498</ele>
        <time>2025-12-27T18:34:01.238Z</time>
      </trkpt>
      <trkpt lat="46.401177" lon="6.223627">
        <ele>446.265535</ele>
        <time>2025-12-27T18:34:41.796Z</time>
      </trkpt>
      <trkpt lat="46.401490" lon="6.223235">
        <ele>447.684962</ele>
        <time>2025-12-27T18:34:56.978Z</time>
      </trkpt>
      <trkpt lat="46.401671" lon="6.223048">
        <ele>448.455435</ele>
        <time>2025-12-27T18:35:06.440Z</time>
      </trkpt>
      <trkpt lat="46.402076" lon="6.223710">
        <ele>450.571153</ele>
        <time>2025-12-27T18:35:34.454Z</time>
      </trkpt>
      <trkpt lat="46.402774" lon="6.223387">
        <ele>452.689615</ele>
        <time>2025-12-27T18:36:03.466Z</time>
      </trkpt>
      <trkpt lat="46.404350" lon="6.225428">
        <ele>453.730117</ele>
        <time>2025-12-27T18:36:54.645Z</time>
      </trkpt>
      <trkpt lat="46.404626" lon="6.225736">
        <ele>453.439089</ele>
        <time>2025-12-27T18:37:01.212Z</time>
      </trkpt>
      <trkpt lat="46.404913" lon="6.226005">
        <ele>453.15352</ele>
        <time>2025-12-27T18:37:07.599Z</time>
      </trkpt>
      <trkpt lat="46.405460" lon="6.226523">
        <ele>452.648494</ele>
        <time>2025-12-27T18:37:20.051Z</time>
      </trkpt>
      <trkpt lat="46.405665" lon="6.226784">
        <ele>452.929188</ele>
        <time>2025-12-27T18:37:25.546Z</time>
      </trkpt>
      <trkpt lat="46.406091" lon="6.227616">
        <ele>453.664458</ele>
        <time>2025-12-27T18:37:43.031Z</time>
      </trkpt>
      <trkpt lat="46.406418" lon="6.228482">
        <ele>454.364995</ele>
        <time>2025-12-27T18:38:05.503Z</time>
      </trkpt>
      <trkpt lat="46.406517" lon="6.228750">
        <ele>454.794343</ele>
        <time>2025-12-27T18:38:13.666Z</time>
      </trkpt>
      <trkpt lat="46.406523" lon="6.228847">
        <ele>455.00532</ele>
        <time>2025-12-27T18:38:16.389Z</time>
      </trkpt>
      <trkpt lat="46.406458" lon="6.228976">
        <ele>455.351437</ele>
        <time>2025-12-27T18:38:20.722Z</time>
      </trkpt>
      <trkpt lat="46.406083" lon="6.229240">
        <ele>456.661052</ele>
        <time>2025-12-27T18:38:37.316Z</time>
      </trkpt>
      <trkpt lat="46.406039" lon="6.229306">
        <ele>456.859928</ele>
        <time>2025-12-27T18:38:39.826Z</time>
      </trkpt>
      <trkpt lat="46.406022" lon="6.229401">
        <ele>457.072547</ele>
        <time>2025-12-27T18:38:42.451Z</time>
      </trkpt>
      <trkpt lat="46.406056" lon="6.229515">
        <ele>457.34162</ele>
        <time>2025-12-27T18:38:45.791Z</time>
      </trkpt>
      <trkpt lat="46.406150" lon="6.229654">
        <ele>457.763387</ele>
        <time>2025-12-27T18:38:50.869Z</time>
      </trkpt>
      <trkpt lat="46.406335" lon="6.230071">
        <ele>458.83757</ele>
        <time>2025-12-27T18:39:04.030Z</time>
      </trkpt>
      <trkpt lat="46.406419" lon="6.230186">
        <ele>459.200488</ele>
        <time>2025-12-27T18:39:08.612Z</time>
      </trkpt>
      <trkpt lat="46.407075" lon="6.230609">
        <ele>461.059615</ele>
        <time>2025-12-27T18:39:35.589Z</time>
      </trkpt>
      <trkpt lat="46.407309" lon="6.230834">
        <ele>461.678513</ele>
        <time>2025-12-27T18:39:45.036Z</time>
      </trkpt>
      <trkpt lat="46.407480" lon="6.231066">
        <ele>462.194692</ele>
        <time>2025-12-27T18:39:52.772Z</time>
      </trkpt>
      <trkpt lat="46.407540" lon="6.231224">
        <ele>462.468859</ele>
        <time>2025-12-27T18:39:56.884Z</time>
      </trkpt>
      <trkpt lat="46.407566" lon="6.231668">
        <ele>463.146155</ele>
        <time>2025-12-27T18:40:06.745Z</time>
      </trkpt>
      <trkpt lat="46.407455" lon="6.232234">
        <ele>464.040578</ele>
        <time>2025-12-27T18:40:19.362Z</time>
      </trkpt>
      <trkpt lat="46.407477" lon="6.232423">
        <ele>464.076529</ele>
        <time>2025-12-27T18:40:23.146Z</time>
      </trkpt>
      <trkpt lat="46.407528" lon="6.232517">
        <ele>464.064527</ele>
        <time>2025-12-27T18:40:25.536Z</time>
      </trkpt>
      <trkpt lat="46.407696" lon="6.232670">
        <ele>464.035656</ele>
        <time>2025-12-27T18:40:31.133Z</time>
      </trkpt>
      <trkpt lat="46.408102" lon="6.232649">
        <ele>463.976533</ele>
        <time>2025-12-27T18:40:41.583Z</time>
      </trkpt>
      <trkpt lat="46.408636" lon="6.232791">
        <ele>463.897523</ele>
        <time>2025-12-27T18:40:53.363Z</time>
      </trkpt>
      <trkpt lat="46.408694" lon="6.232875">
        <ele>463.885594</ele>
        <time>2025-12-27T18:40:54.972Z</time>
      </trkpt>
      <trkpt lat="46.408802" lon="6.232808">
        <ele>463.868499</ele>
        <time>2025-12-27T18:40:57.229Z</time>
      </trkpt>
      <trkpt lat="46.409146" lon="6.232758">
        <ele>463.597353</ele>
        <time>2025-12-27T18:41:03.505Z</time>
      </trkpt>
      <trkpt lat="46.409338" lon="6.232597">
        <ele>462.990265</ele>
        <time>2025-12-27T18:41:07.404Z</time>
      </trkpt>
      <trkpt lat="46.409539" lon="6.232297">
        <ele>462.200758</ele>
        <time>2025-12-27T18:41:12.412Z</time>
      </trkpt>
      <trkpt lat="46.409951" lon="6.231719">
        <ele>460.631699</ele>
        <time>2025-12-27T18:41:22.166Z</time>
      </trkpt>
      <trkpt lat="46.409967" lon="6.231699">
        <ele>460.57388</ele>
        <time>2025-12-27T18:41:22.534Z</time>
        <extensions>
          <visugpx:TrkExtension xmlns:visugpx="https://www.visugpx.com/editgpx/">
            <visugpx:node>4</visugpx:node>
          </visugpx:TrkExtension>
        </extensions>
      </trkpt>
    </trkseg>
  </trk>
</gpx>